CCSDS_OMM_VERS = 2.0
CREATION_DATE  = 
ORIGINATOR     = 

OBJECT_NAME    = STARLINK-36588
OBJECT_ID      = 2026-016N
CENTER_NAME    = EARTH
REF_FRAME      = TEME
TIME_SYSTEM    = UTC
MEAN_ELEMENT_THEORY = SGP/SGP4

EPOCH          = 2026-02-23T02:25:45.090048
MEAN_MOTION    = 15.75263840
ECCENTRICITY   = .0001366
INCLINATION    = 97.2849
RA_OF_ASC_NODE = 113.8181
ARG_OF_PERICENTER = 95.1638
MEAN_ANOMALY   = 264.9783

EPHEMERIS_TYPE = 0
CLASSIFICATION_TYPE = U
NORAD_CAT_ID   = 67573
ELEMENT_SET_NO = 999
REV_AT_EPOCH   = 450
BSTAR          = .14768E-2
MEAN_MOTION_DOT = .226811E-2
MEAN_MOTION_DDOT = 0

CCSDS_OMM_VERS = 2.0
CREATION_DATE  = 
ORIGINATOR     = 

OBJECT_NAME    = STARLINK-36594
OBJECT_ID      = 2026-016P
CENTER_NAME    = EARTH
REF_FRAME      = TEME
TIME_SYSTEM    = UTC
MEAN_ELEMENT_THEORY = SGP/SGP4

EPOCH          = 2026-02-23T04:00:01.999584
MEAN_MOTION    = 15.75141172
ECCENTRICITY   = .0001398
INCLINATION    = 97.2843
RA_OF_ASC_NODE = 113.9756
ARG_OF_PERICENTER = 107.1764
MEAN_ANOMALY   = 105.9501

EPHEMERIS_TYPE = 0
CLASSIFICATION_TYPE = U
NORAD_CAT_ID   = 67574
ELEMENT_SET_NO = 999
REV_AT_EPOCH   = 576
BSTAR          = .20054E-3
MEAN_MOTION_DOT = .29823E-3
MEAN_MOTION_DDOT = 0

CCSDS_OMM_VERS = 2.0
CREATION_DATE  = 
ORIGINATOR     = 

OBJECT_NAME    = STARLINK-36400
OBJECT_ID      = 2026-016Q
CENTER_NAME    = EARTH
REF_FRAME      = TEME
TIME_SYSTEM    = UTC
MEAN_ELEMENT_THEORY = SGP/SGP4

EPOCH          = 2026-02-23T02:00:20.777184
MEAN_MOTION    = 15.75337610
ECCENTRICITY   = .0001058
INCLINATION    = 97.2858
RA_OF_ASC_NODE = 113.8439
ARG_OF_PERICENTER = 88.4547
MEAN_ANOMALY   = 271.6839

EPHEMERIS_TYPE = 0
CLASSIFICATION_TYPE = U
NORAD_CAT_ID   = 67575
ELEMENT_SET_NO = 999
REV_AT_EPOCH   = 450
BSTAR          = .25144E-2
MEAN_MOTION_DOT = .395331E-2
MEAN_MOTION_DDOT = 0

CCSDS_OMM_VERS = 2.0
CREATION_DATE  = 
ORIGINATOR     = 

OBJECT_NAME    = STARLINK-36591
OBJECT_ID      = 2026-016R
CENTER_NAME    = EARTH
REF_FRAME      = TEME
TIME_SYSTEM    = UTC
MEAN_ELEMENT_THEORY = SGP/SGP4

EPOCH          = 2026-02-23T03:14:33.052128
MEAN_MOTION    = 15.75334025
ECCENTRICITY   = .0002582
INCLINATION    = 97.2851
RA_OF_ASC_NODE = 113.9246
ARG_OF_PERICENTER = 94.1516
MEAN_ANOMALY   = 266.0044

EPHEMERIS_TYPE = 0
CLASSIFICATION_TYPE = U
NORAD_CAT_ID   = 67576
ELEMENT_SET_NO = 999
REV_AT_EPOCH   = 451
BSTAR          = .21229E-2
MEAN_MOTION_DOT = .331173E-2
MEAN_MOTION_DDOT = 0

CCSDS_OMM_VERS = 2.0
CREATION_DATE  = 
ORIGINATOR     = 

OBJECT_NAME    = STARLINK-36590
OBJECT_ID      = 2026-016S
CENTER_NAME    = EARTH
REF_FRAME      = TEME
TIME_SYSTEM    = UTC
MEAN_ELEMENT_THEORY = SGP/SGP4

EPOCH          = 2026-02-23T02:05:55.849344
MEAN_MOTION    = 15.75246764
ECCENTRICITY   = .0001168
INCLINATION    = 97.2863
RA_OF_ASC_NODE = 113.8363
ARG_OF_PERICENTER = 74.1421
MEAN_ANOMALY   = 285.9973

EPHEMERIS_TYPE = 0
CLASSIFICATION_TYPE = U
NORAD_CAT_ID   = 67577
ELEMENT_SET_NO = 999
REV_AT_EPOCH   = 450
BSTAR          = .10105E-2
MEAN_MOTION_DOT = .153718E-2
MEAN_MOTION_DDOT = 0

CCSDS_OMM_VERS = 2.0
CREATION_DATE  = 
ORIGINATOR     = 

OBJECT_NAME    = STARLINK-36613
OBJECT_ID      = 2026-016T
CENTER_NAME    = EARTH
REF_FRAME      = TEME
TIME_SYSTEM    = UTC
MEAN_ELEMENT_THEORY = SGP/SGP4

EPOCH          = 2026-02-22T22:09:57.953088
MEAN_MOTION    = 15.80997207
ECCENTRICITY   = .000145
INCLINATION    = 97.2844
RA_OF_ASC_NODE = 113.7541
ARG_OF_PERICENTER = 135.6001
MEAN_ANOMALY   = 224.5384

EPHEMERIS_TYPE = 0
CLASSIFICATION_TYPE = U
NORAD_CAT_ID   = 67578
ELEMENT_SET_NO = 999
REV_AT_EPOCH   = 448
BSTAR          = .20861E-2
MEAN_MOTION_DOT = .422929E-2
MEAN_MOTION_DDOT = 0

CCSDS_OMM_VERS = 2.0
CREATION_DATE  = 
ORIGINATOR     = 

OBJECT_NAME    = STARLINK-36571
OBJECT_ID      = 2026-016U
CENTER_NAME    = EARTH
REF_FRAME      = TEME
TIME_SYSTEM    = UTC
MEAN_ELEMENT_THEORY = SGP/SGP4

EPOCH          = 2026-02-22T17:02:38.821920
MEAN_MOTION    = 15.75211744
ECCENTRICITY   = .00013916
INCLINATION    = 97.2851
RA_OF_ASC_NODE = 113.4309
ARG_OF_PERICENTER = 106.0571
MEAN_ANOMALY   = 254.0847

EPHEMERIS_TYPE = 0
CLASSIFICATION_TYPE = U
NORAD_CAT_ID   = 67579
ELEMENT_SET_NO = 999
REV_AT_EPOCH   = 444
BSTAR          = .16502001E-2
MEAN_MOTION_DOT = .253701E-2
MEAN_MOTION_DDOT = 0

CCSDS_OMM_VERS = 2.0
CREATION_DATE  = 
ORIGINATOR     = 

OBJECT_NAME    = STARLINK-36612
OBJECT_ID      = 2026-016V
CENTER_NAME    = EARTH
REF_FRAME      = TEME
TIME_SYSTEM    = UTC
MEAN_ELEMENT_THEORY = SGP/SGP4

EPOCH          = 2026-02-20T03:15:29.594016
MEAN_MOTION    = 15.80855073
ECCENTRICITY   = .00016227
INCLINATION    = 97.2829
RA_OF_ASC_NODE = 110.8096
ARG_OF_PERICENTER = 91.3110
MEAN_ANOMALY   = 268.8344

EPHEMERIS_TYPE = 0
CLASSIFICATION_TYPE = U
NORAD_CAT_ID   = 67580
ELEMENT_SET_NO = 999
REV_AT_EPOCH   = 404
BSTAR          = .43353183E-3
MEAN_MOTION_DOT = .83853E-3
MEAN_MOTION_DDOT = 0

CCSDS_OMM_VERS = 2.0
CREATION_DATE  = 
ORIGINATOR     = 

OBJECT_NAME    = STARLINK-36632
OBJECT_ID      = 2026-016W
CENTER_NAME    = EARTH
REF_FRAME      = TEME
TIME_SYSTEM    = UTC
MEAN_ELEMENT_THEORY = SGP/SGP4

EPOCH          = 2026-02-22T21:19:48.428544
MEAN_MOTION    = 15.75259116
ECCENTRICITY   = .00015038
INCLINATION    = 97.2847
RA_OF_ASC_NODE = 113.6486
ARG_OF_PERICENTER = 86.6549
MEAN_ANOMALY   = 273.4889

EPHEMERIS_TYPE = 0
CLASSIFICATION_TYPE = U
NORAD_CAT_ID   = 67581
ELEMENT_SET_NO = 999
REV_AT_EPOCH   = 447
BSTAR          = .86434555E-3
MEAN_MOTION_DOT = .131184E-2
MEAN_MOTION_DDOT = 0

CCSDS_OMM_VERS = 2.0
CREATION_DATE  = 
ORIGINATOR     = 

OBJECT_NAME    = STARLINK-36609
OBJECT_ID      = 2026-016X
CENTER_NAME    = EARTH
REF_FRAME      = TEME
TIME_SYSTEM    = UTC
MEAN_ELEMENT_THEORY = SGP/SGP4

EPOCH          = 2026-02-22T17:08:14.224992
MEAN_MOTION    = 15.75213228
ECCENTRICITY   = .00012422
INCLINATION    = 97.2836
RA_OF_ASC_NODE = 113.4250
ARG_OF_PERICENTER = 81.5581
MEAN_ANOMALY   = 278.5825

EPHEMERIS_TYPE = 0
CLASSIFICATION_TYPE = U
NORAD_CAT_ID   = 67582
ELEMENT_SET_NO = 999
REV_AT_EPOCH   = 444
BSTAR          = .21758344E-2
MEAN_MOTION_DOT = .337933E-2
MEAN_MOTION_DDOT = 0

CCSDS_OMM_VERS = 2.0
CREATION_DATE  = 
ORIGINATOR     = 

OBJECT_NAME    = STARLINK-36577
OBJECT_ID      = 2026-016Y
CENTER_NAME    = EARTH
REF_FRAME      = TEME
TIME_SYSTEM    = UTC
MEAN_ELEMENT_THEORY = SGP/SGP4

EPOCH          = 2026-02-22T22:00:01.999584
MEAN_MOTION    = 15.75152349
ECCENTRICITY   = .00018832
INCLINATION    = 97.2844
RA_OF_ASC_NODE = 113.7507
ARG_OF_PERICENTER = 81.6173
MEAN_ANOMALY   = 244.7943

EPHEMERIS_TYPE = 0
CLASSIFICATION_TYPE = U
NORAD_CAT_ID   = 67583
ELEMENT_SET_NO = 999
REV_AT_EPOCH   = 567
BSTAR          = .23806205E-3
MEAN_MOTION_DOT = .3547E-3
MEAN_MOTION_DDOT = 0

CCSDS_OMM_VERS = 2.0
CREATION_DATE  = 
ORIGINATOR     = 

OBJECT_NAME    = STARLINK-36419
OBJECT_ID      = 2026-016Z
CENTER_NAME    = EARTH
REF_FRAME      = TEME
TIME_SYSTEM    = UTC
MEAN_ELEMENT_THEORY = SGP/SGP4

EPOCH          = 2026-02-22T16:22:29.776512
MEAN_MOTION    = 15.75188178
ECCENTRICITY   = .00011905
INCLINATION    = 97.2844
RA_OF_ASC_NODE = 113.4712
ARG_OF_PERICENTER = 137.6285
MEAN_ANOMALY   = 222.5072

EPHEMERIS_TYPE = 0
CLASSIFICATION_TYPE = U
NORAD_CAT_ID   = 67584
ELEMENT_SET_NO = 999
REV_AT_EPOCH   = 444
BSTAR          = .23867955E-2
MEAN_MOTION_DOT = .371805E-2
MEAN_MOTION_DDOT = 0

