STARLINK-36588          
1 67573U 26016N   26054.10121632  .00226811  00000+0  14768-2 0  9993
2 67573  97.2849 113.8181 0001366  95.1638 264.9783 15.75263840  4509
STARLINK-36594          
1 67574U 26016P   26054.16668981  .00029823  00000+0  20054-3 0  9993
2 67574  97.2843 113.9756 0001398 107.1764 105.9501 15.75141172  5766
STARLINK-36400          
1 67575U 26016Q   26054.08357381  .00395331  00000+0  25144-2 0  9998
2 67575  97.2858 113.8439 0001058  88.4547 271.6839 15.75337610  4503
STARLINK-36591          
1 67576U 26016R   26054.13510477  .00331173  00000+0  21229-2 0  9996
2 67576  97.2851 113.9246 0002582  94.1516 266.0044 15.75334025  4511
STARLINK-36590          
1 67577U 26016S   26054.08745196  .00153718  00000+0  10105-2 0  9997
2 67577  97.2863 113.8363 0001168  74.1421 285.9973 15.75246764  4508
STARLINK-36613          
1 67578U 26016T   26053.92358742  .00422929  00000+0  20861-2 0  9990
2 67578  97.2844 113.7541 0001450 135.6001 224.5384 15.80997207  4489
STARLINK-36571          
1 67579U 26016U   26053.71017155  .00253701  00000+0  16502-2 0  9995
2 67579  97.2851 113.4309 0001391 106.0571 254.0847 15.75211744  4442
STARLINK-36612          
1 67580U 26016V   26051.13575919  .00083853  00000+0  43353-3 0  9992
2 67580  97.2829 110.8096 0001622  91.3110 268.8344 15.80855073  4041
STARLINK-36632          
1 67581U 26016W   26053.88875496  .00131184  00000+0  86435-3 0  9999
2 67581  97.2847 113.6486 0001503  86.6549 273.4889 15.75259116  4470
STARLINK-36609          
1 67582U 26016X   26053.71405353  .00337933  00000+0  21758-2 0  9999
2 67582  97.2836 113.4250 0001242  81.5581 278.5825 15.75213228  4443
STARLINK-36577          
1 67583U 26016Y   26053.91668981  .00035470  00000+0  23806-3 0  9998
2 67583  97.2844 113.7507 0001883  81.6173 244.7943 15.75152349  5678
STARLINK-36419          
1 67584U 26016Z   26053.68228908  .00371805  00000+0  23868-2 0  9996
2 67584  97.2844 113.4712 0001190 137.6285 222.5072 15.75188178  4441
